NORAD_CAT_ID,OBJECT_NAME,OBJECT_TYPE,EPOCH,MEAN_MOTION,ECCENTRICITY,INCLINATION,RA_OF_ASC_NODE,ARG_OF_PERICENTER,MEAN_ANOMALY,BSTAR,MEAN_MOTION_DOT,MEAN_MOTION_DDOT,TLE_LINE0,TLE_LINE1,TLE_LINE2,SEMIMAJOR_AXIS,PERIOD,APOGEE,PERIGEE,DECAYED
53268.0,STARLINK-4109,PAYLOAD,2022-11-03 07:49:58,15.08846946,0.0001536,53.218,281.5089,59.6106,300.5037,2.9219e-05,1.77e-06,0.0,0 STARLINK-4109,1 53268U 22086AC  22307.32636967  .00000177  00000-0  29219-4 0  9990,2 53268  53.2180 281.5089 0001536  59.6106 300.5037 15.08846946 16354,6917.859,95.437,540.7869999999998,538.6619999999998,0.0
53268.0,STARLINK-4109,PAYLOAD,2022-11-04 04:29:57,15.088628,0.0001614,53.2188,277.6428,60.1904,299.9249,0.00012581,1.716e-05,0.0,0 STARLINK-4109,1 53268U 22086AC  22308.18746959  .00001716  00000-0  12581-3 0  9991,2 53268  53.2188 277.6428 0001614  60.1904 299.9249 15.08862800 16482,6917.811,95.436,540.7919999999998,538.559,0.0
53268.0,STARLINK-4109,PAYLOAD,2022-11-04 07:40:43,15.08851727,0.0001592,53.2187,277.0482,64.157,295.9586,0.00018377,2.639e-05,0.0,0 STARLINK-4109,1 53268U 22086AC  22308.31995352  .00002639  00000-0  18377-3 0  9993,2 53268  53.2187 277.0482 0001592  64.1570 295.9586 15.08851727 16502,6917.845,95.437,540.811,538.6080000000002,0.0
53268.0,STARLINK-4109,PAYLOAD,2022-11-04 15:37:40,15.08839023,0.000154,53.2184,275.5604,65.8279,294.2874,8.707200000000001e-05,1.098e-05,0.0,0 STARLINK-4109,1 53268U 22086AC  22308.65116366  .00001098  00000-0  87072-4 0  9997,2 53268  53.2184 275.5604 0001540  65.8279 294.2874 15.08839023 16557,6917.8830000000025,95.438,540.814,538.683,0.0
53268.0,STARLINK-4109,PAYLOAD,2022-11-05 07:31:32,15.08838411,0.0001853,53.2184,272.59,52.1701,307.9458,-6.634e-05,-1.344e-05,0.0,0 STARLINK-4109,1 53268U 22086AC  22309.31356966 -.00001344  00000-0 -66340-4 0  9994,2 53268  53.2184 272.5900 0001853  52.1701 307.9458 15.08838411 16830,6917.885,95.438,541.0319999999998,538.4680000000002,0.0
53268.0,STARLINK-4109,PAYLOAD,2022-11-06 04:11:34,15.08821469,0.0001565999999999,53.2191,268.7194,77.0146,283.1021,-0.00015663,-2.779e-05,0.0,0 STARLINK-4109,1 53268U 22086AC  22310.17470556 -.00002779  00000-0 -15663-3 0  9996,2 53268  53.2191 268.7194 0001566  77.0146 283.1021 15.08821469 16780,6917.937,95.439,540.885,538.719,0.0
53268.0,STARLINK-4109,PAYLOAD,2022-11-06 05:46:57,15.08822556,0.0001567,53.2193,268.4216,82.1608,277.9562,-0.00014102,-2.531e-05,0.0,0 STARLINK-4109,1 53268U 22086AC  22310.24094488 -.00002531  00000-0 -14102-3 0  9993,2 53268  53.2193 268.4216 0001567  82.1608 277.9562 15.08822556 16975,6917.934,95.439,540.883,538.715,0.0
53268.0,STARLINK-4109,PAYLOAD,2022-11-07 04:02:20,15.08836732,0.0001315999999999,53.2175,264.2591,53.803,306.3084,5.9003e-05,6.51e-06,0.0,0 STARLINK-4109,1 53268U 22086AC  22311.16829467  .00000651  00000-0  59003-4 0  9997,2 53268  53.2175 264.2591 0001316  53.8030 306.3084 15.08836732 16934,6917.89,95.438,540.6659999999998,538.845,0.0
53268.0,STARLINK-4109,PAYLOAD,2022-11-07 19:56:12,15.08823753,0.0001491,53.2185,261.2897,58.3553,301.7585,0.00017441,2.488e-05,0.0,0 STARLINK-4109,1 53268U 22086AC  22311.83070470  .00002488  00000-0  17441-3 0  9992,2 53268  53.2185 261.2897 0001491  58.3553 301.7585 15.08823753 17031,6917.93,95.439,540.827,538.764,0.0
53268.0,STARLINK-4109,PAYLOAD,2022-11-08 05:28:30,15.0884525,0.00013,53.2179,259.5063,79.3132,280.8006,0.00014314,1.991e-05,0.0,0 STARLINK-4109,1 53268U 22086AC  22312.22813268  .00001991  00000-0  14314-3 0  9990,2 53268  53.2179 259.5063 0001300  79.3132 280.8006 15.08845250 17091,6917.864000000001,95.437,540.629,538.83,0.0
53268.0,STARLINK-4109,PAYLOAD,2022-11-09 13:16:13,15.08835067,0.0001501,53.2185,253.5588,65.7493,294.3656,-2.319e-05,-6.57e-06,0.0,0 STARLINK-4109,1 53268U 22086AC  22313.55293832 -.00000657  00000-0 -23190-4 0  9999,2 53268  53.2185 253.5588 0001501  65.7493 294.3656 15.08835067 17474,6917.895,95.438,540.799,538.722,0.0
53268.0,STARLINK-4109,PAYLOAD,2022-11-10 01:59:18,15.08847868,0.0001661,53.2189,251.1754,82.9601,277.158,-0.00016132,-2.855e-05,0.0,0 STARLINK-4109,1 53268U 22086AC  22314.08285519 -.00002855  00000-0 -16132-3 0  9990,2 53268  53.2189 251.1754 0001661  82.9601 277.1580 15.08847868 17372,6917.856,95.437,540.87,538.572,0.0
53268.0,STARLINK-4109,PAYLOAD,2022-11-10 13:07:01,15.08829281,0.0001564999999999,53.2171,249.0991,65.0887,295.0268,-0.00018045,-3.158e-05,0.0,0 STARLINK-4109,1 53268U 22086AC  22314.54654884 -.00003158  00000-0 -18045-3 0  9998,2 53268  53.2171 249.0991 0001565  65.0887 295.0268 15.08829281 17622,6917.913000000001,95.438,540.861,538.695,0.0
53268.0,STARLINK-4109,PAYLOAD,2022-11-11 05:00:53,15.08823508,0.0001561,53.2182,246.1239,71.4837,288.6324,-8.8149e-05,-1.6899999999999994e-05,0.0,0 STARLINK-4109,1 53268U 22086AC  22315.20895445 -.00001690  00000-0 -88149-4 0  9994,2 53268  53.2182 246.1239 0001561  71.4837 288.6324 15.08823508 17727,6917.931,95.439,540.876,538.716,0.0
53268.0,STARLINK-4109,PAYLOAD,2022-11-11 19:19:21,15.08832839,0.0001591,53.218,243.4483,69.3369,290.7793,7.2135e-05,8.599999999999999e-06,0.0,0 STARLINK-4109,1 53268U 22086AC  22315.80510833  .00000860  00000-0  72135-4 0  9999,2 53268  53.2180 243.4483 0001591  69.3369 290.7793 15.08832839 17636,6917.901999999999,95.438,540.868,538.6669999999998,0.0
53268.0,STARLINK-4109,PAYLOAD,2022-11-12 04:51:39,15.08842164,0.000159,53.218,241.6637,70.6693,289.4471,0.00025477,3.769e-05,0.0,0 STARLINK-4109,1 53268U 22086AC  22316.20253738  .00003769  00000-0  25477-3 0  9999,2 53268  53.2180 241.6637 0001590  70.6693 289.4471 15.08842164 17697,6917.874,95.437,540.839,538.639,0.0
53268.0,STARLINK-4109,PAYLOAD,2022-11-12 12:48:35,15.08840267,0.0001597,53.2182,240.1771,71.0925,289.0241,0.00025186,3.723e-05,0.0,0 STARLINK-4109,1 53268U 22086AC  22316.53373923  .00003723  00000-0  25186-3 0  9991,2 53268  53.2182 240.1771 0001597  71.0925 289.0241 15.08840267 17921,6917.88,95.438,540.849,538.64,0.0
53268.0,STARLINK-4109,PAYLOAD,2022-11-12 17:34:44,15.08845145,0.0001571,53.218,239.285,69.5667,290.5493,0.00025939,3.843e-05,0.0,0 STARLINK-4109,1 53268U 22086AC  22316.73245595  .00003843  00000-0  25939-3 0  9995,2 53268  53.2180 239.2850 0001571  69.5667 290.5493 15.08845145 17952,6917.865,95.437,540.816,538.643,0.0
53268.0,STARLINK-4109,PAYLOAD,2022-11-13 04:42:26,15.08843743,0.0001463,53.2181,237.2056,57.1561,302.9572,0.00016338,2.313e-05,0.0,0 STARLINK-4109,1 53268U 22086AC  22317.19614039  .00002313  00000-0  16338-3 0  9993,2 53268  53.2181 237.2056 0001463  57.1561 302.9572 15.08843743 17841,6917.869000000002,95.437,540.746,538.722,0.0
53268.0,STARLINK-4109,PAYLOAD,2022-11-13 19:00:56,15.088300199999995,0.0001097,53.2175,234.5265,54.6101,305.4994,-0.00015167,-2.7e-05,0.0,0 STARLINK-4109,1 53268U 22086AC  22317.79232107 -.00002700  00000-0 -15167-3 0  9992,2 53268  53.2175 234.5265 0001097  54.6101 305.4994 15.08830020 17931,6917.911,95.438,540.535,539.0169999999998,0.0
53268.0,STARLINK-4109,PAYLOAD,2022-11-14 10:54:47,15.08836009,0.0001518,53.2176,231.5542,65.8719,294.2432,-0.00012908,-2.341e-05,0.0,0 STARLINK-4109,1 53268U 22086AC  22318.45471954 -.00002341  00000-0 -12908-3 0  9992,2 53268  53.2176 231.5542 0001518  65.8719 294.2432 15.08836009 18211,6917.893,95.438,540.808,538.707,0.0
53268.0,STARLINK-4109,PAYLOAD,2022-11-14 17:16:20,15.08836405,0.000145,53.2176,230.3649,64.8406,295.2737,-8.1559e-05,-1.586e-05,0.0,0 STARLINK-4109,1 53268U 22086AC  22318.71967832 -.00001586  00000-0 -81559-4 0  9995,2 53268  53.2176 230.3649 0001450  64.8406 295.2737 15.08836405 18256,6917.891,95.438,540.759,538.753,0.0
53268.0,STARLINK-4109,PAYLOAD,2022-11-14 22:02:29,15.08843684,0.0001482,53.2179,229.4728,68.0987,292.0163,-6.702e-05,-1.355e-05,0.0,0 STARLINK-4109,1 53268U 22086AC  22318.91839334 -.00001355  00000-0 -67020-4 0  9993,2 53268  53.2179 229.4728 0001482  68.0987 292.0163 15.08843684 18100,6917.869000000002,95.437,540.759,538.7090000000002,0.0
53268.0,STARLINK-4109,PAYLOAD,2022-11-15 10:45:33,15.0884536,0.0001555,53.218,227.0941,65.1081,295.0073,4.1063e-05,3.66e-06,0.0,0 STARLINK-4109,1 53268U 22086AC  22319.44830843  .00000366  00000-0  41063-4 0  9996,2 53268  53.2180 227.0941 0001555  65.1081 295.0073 15.08845360 18361,6917.864000000001,95.437,540.805,538.653,0.0
53268.0,STARLINK-4109,PAYLOAD,2022-11-15 17:07:06,15.08835,0.0001613,53.218,225.9049,68.1926,291.9238,0.00013851,1.917e-05,0.0,0 STARLINK-4109,1 53268U 22086AC  22319.71327372  .00001917  00000-0  13851-3 0  9990,2 53268  53.2180 225.9049 0001613  68.1926 291.9238 15.08835000 18406,6917.896,95.438,540.877,538.645,0.0
53268.0,STARLINK-4109,PAYLOAD,2022-11-16 02:39:25,15.08830553,0.0001609,53.2185,224.1219,69.8996,290.2169,0.00019559,2.825e-05,0.0,0 STARLINK-4109,1 53268U 22086AC  22320.11071701  .00002825  00000-0  19559-3 0  9998,2 53268  53.2185 224.1219 0001609  69.8996 290.2169 15.08830553 18280,6917.909000000002,95.438,540.887,538.661,0.0
53268.0,STARLINK-4109,PAYLOAD,2022-11-16 04:14:49,15.08824455,0.0001629999999999,53.2181,223.8238,69.0051,291.1116,0.00014793,2.066e-05,0.0,0 STARLINK-4109,1 53268U 22086AC  22320.17696368  .00002066  00000-0  14793-3 0  9998,2 53268  53.2181 223.8238 0001630  69.0051 291.1116 15.08824455 18298,6917.928000000001,95.439,540.9209999999998,538.665,0.0
53268.0,STARLINK-4109,PAYLOAD,2022-11-17 02:30:12,15.088493,0.0001694,53.2178,219.661,68.9416,291.1758,0.00010639,1.406e-05,0.0,0 STARLINK-4109,1 53268U 22086AC  22321.10431086  .00001406  00000-0  10639-3 0  9998,2 53268  53.2178 219.6610 0001694  68.9416 291.1758 15.08849300 18438,6917.852,95.437,540.889,538.545,0.0
53268.0,STARLINK-4109,PAYLOAD,2022-11-18 02:20:59,15.08843587,0.0001717,53.2175,215.2002,73.0045,287.1135,4.6282e-05,4.49e-06,0.0,0 STARLINK-4109,1 53268U 22086AC  22322.09791238  .00000449  00000-0  46282-4 0  9995,2 53268  53.2175 215.2002 0001717  73.0045 287.1135 15.08843587 18584,6917.869000000002,95.437,540.922,538.547,0.0
